     2.100          NAVIGATION                              RINEX VERSION / TYPE
fic2rin                                 02/05/2017 00:03:57 PGM / RUN BY / DATE
                                                            END OF HEADER
10 17  2  4 18  0  0.0 -.108643900603D-03  .318323145621D-11  .000000000000D+00
     .133000000000D+03 -.253750000000D+02  .487127433670D-08 -.496582895779D+00
    -.131502747536D-05  .219531508628D-02  .717677175999D-05  .515366844940D+04
     .583200000000D+06  .484287738800D-07  .648907796883D+00  .931322574615D-08
     .959992811874D+00  .239875000000D+03 -.290151651768D+01 -.820212736581D-08
    -.703600736366D-10  .100000000000D+01  .193400000000D+04  .000000000000D+00
     .240000000000D+01  .000000000000D+00  .232830643654D-08  .133000000000D+03
     .576006000000D+06  .400000000000D+01
11 17  2  4 18  0  0.0 -.668514054269D-03 -.136424205266D-11  .000000000000D+00
     .460000000000D+02 -.211875000000D+02  .597203447349D-08  .993080686300D+00
    -.124610960484D-05  .166378880385D-01  .823661684990D-05  .515370012665D+04
     .583200000000D+06 -.270083546638D-06 -.783703476670D+00 -.262632966042D-06
     .899595639175D+00  .191625000000D+03  .161652212668D+01 -.905680582374D-08
     .328585115460D-09  .100000000000D+01  .193400000000D+04  .000000000000D+00
     .240000000000D+01  .000000000000D+00 -.121071934700D-07  .460000000000D+02
     .576006000000D+06  .400000000000D+01
12 17  2  4 18  0  0.0  .388423446566D-03 -.341060513165D-12  .000000000000D+00
     .300000000000D+02 -.279062500000D+02  .407052669663D-08  .371195978008D+00
    -.145472586155D-05  .637437484693D-02  .475719571114D-05  .515358833694D+04
     .583200000000D+06 -.428408384323D-07 -.243319529594D+01  .163912773132D-06
     .989851066424D+00  .302437500000D+03  .787540213400D+00 -.815712549130D-08
    -.286440502825D-09  .100000000000D+01  .193400000000D+04  .000000000000D+00
     .240000000000D+01  .000000000000D+00 -.121071934700D-07  .300000000000D+02
     .576006000000D+06  .400000000000D+01
13 17  2  4 18  0  0.0 -.682668760419D-04 -.181898940355D-11  .000000000000D+00
     .340000000000D+02  .581875000000D+02  .425946313802D-08  .200166160700D+01
     .290945172310D-05  .408213806804D-02  .110100954771D-04  .515369202995D+04
     .583200000000D+06  .596046447754D-07  .181462863800D+01 -.372529029846D-07
     .969721108845D+00  .171093750000D+03  .184873097589D+01 -.780068207258D-08
    -.177864551630D-09  .100000000000D+01  .193400000000D+04  .000000000000D+00
     .240000000000D+01  .000000000000D+00 -.111758708954D-07  .340000000000D+02
     .576006000000D+06  .400000000000D+01
14 17  2  4 18  0  0.0 -.573396682739D-04 -.170530256582D-11  .000000000000D+00
     .270000000000D+02  .322812500000D+02  .442982737723D-08 -.293853965052D+01
     .172480940819D-05  .866572081577D-02  .108350068331D-04  .515362460518D+04
     .583200000000D+06  .987201929092D-07  .177591103933D+01 -.689178705215D-07
     .962228152162D+00  .168812500000D+03 -.195698573025D+01 -.778246702813D-08
    -.153220667970D-09  .100000000000D+01  .193400000000D+04  .000000000000D+00
     .240000000000D+01  .000000000000D+00 -.931322574615D-08  .270000000000D+02
     .576006000000D+06  .400000000000D+01
15 17  2  4 18  0  0.0 -.342371407896D-03 -.102318153949D-11  .000000000000D+00
     .860000000000D+02  .265625000000D+02  .524593279987D-08  .289162833693D+01
     .129826366901D-05  .905665394384D-02  .111665576696D-04  .515374407768D+04
     .583200000000D+06 -.726431608200D-07  .163118964763D+01 -.135973095894D-06
     .929211391647D+00  .146593750000D+03  .570537408693D+00 -.815926843771D-08
    -.252510518077D-09  .100000000000D+01  .193400000000D+04  .000000000000D+00
     .340000000000D+01  .000000000000D+00 -.107102096081D-07  .860000000000D+02
     .576006000000D+06  .400000000000D+01
16 17  2  4 18  0  0.0  .253007747233D-04  .113686837722D-11  .000000000000D+00
     .150000000000D+02 -.292500000000D+02  .390730561211D-08 -.158380016025D+01
    -.158324837685D-05  .911691470537D-02  .463426113129D-05  .515364111328D+04
     .583200000000D+06  .577419996262D-07 -.241436496991D+01 -.167638063431D-06
     .990328745750D+00  .305500000000D+03  .391654107611D+00 -.791425823205D-08
    -.112147528538D-09  .100000000000D+01  .193400000000D+04  .000000000000D+00
     .240000000000D+01  .000000000000D+00 -.107102096081D-07  .150000000000D+02
     .576006000000D+06  .400000000000D+01
17 17  2  4 18  0  0.0 -.192224048078D-03  .113686837722D-11  .000000000000D+00
     .490000000000D+02 -.517812500000D+02  .383087385699D-08 -.263162078630D+01
    -.264681875706D-05  .116713360185D-01  .940822064877D-05  .515357988358D+04
     .583200000000D+06  .875443220139D-07 -.139547804882D+01 -.689178705215D-07
     .978719759332D+00  .206062500000D+03 -.186841882500D+01 -.759031616714D-08
     .142505935944D-09  .100000000000D+01  .193400000000D+04  .000000000000D+00
     .240000000000D+01  .000000000000D+00 -.107102096081D-07  .490000000000D+02
     .576006000000D+06  .400000000000D+01
18 17  2  4 18  0  0.0  .596599653363D-03  .261479726760D-11  .000000000000D+00
     .360000000000D+02 -.194062500000D+02  .578488382077D-08 -.106518452592D+01
    -.663101673126D-06  .175538938493D-01  .695139169693D-05  .515373318672D+04
     .583200000000D+06 -.745058059692D-07  .610808806296D+00  .419095158577D-06
     .925555850488D+00  .228750000000D+03 -.183483205893D+01 -.880786688301D-08
    -.592881838766D-10  .100000000000D+01  .193400000000D+04  .000000000000D+00
     .240000000000D+01  .000000000000D+00 -.111758708954D-07  .360000000000D+02
     .576006000000D+06  .400000000000D+01
19 17  2  4 18  0  0.0 -.514003913850D-03  .102318153949D-11  .000000000000D+00
     .940000000000D+02 -.454062500000D+02  .393730686178D-08  .540825249920D+00
    -.224821269512D-05  .101849928033D-01  .987574458122D-05  .515365295219D+04
     .583200000000D+06 -.240281224251D-06 -.134734169056D+01  .122934579849D-06
     .975934714410D+00  .200218750000D+03  .912930889407D+00 -.792604443728D-08
     .571452374714D-10  .100000000000D+01  .193400000000D+04  .000000000000D+00
     .240000000000D+01  .000000000000D+00 -.153668224812D-07  .940000000000D+02
     .576006000000D+06  .400000000000D+01
20 17  2  4 18  0  0.0  .458606053144D-03  .170530256582D-11  .000000000000D+00
     .104000000000D+03 -.237187500000D+02  .566345019115D-08  .281781190154D+01
    -.135786831379D-05  .462590390816D-02  .677444040775D-05  .515362351990D+04
     .583200000000D+06  .800937414169D-07  .559335511415D+00 -.335276126862D-07
     .926917563894D+00  .229875000000D+03  .154991045019D+01 -.853106963901D-08
    -.757174396496D-10  .100000000000D+01  .193400000000D+04  .000000000000D+00
     .240000000000D+01  .000000000000D+00 -.838190317154D-08  .104000000000D+03
     .576006000000D+06  .400000000000D+01
21 17  2  4 18  0  0.0 -.522763468325D-03  .147792889038D-11  .000000000000D+00
     .360000000000D+02 -.778125000000D+01  .524307553800D-08 -.160951676352D+00
    -.307336449623D-06  .238190932432D-01  .825151801109D-05  .515373865700D+04
     .583200000000D+06 -.331550836563D-06 -.429805527720D+00  .193715095520D-06
     .938888069554D+00  .215312500000D+03 -.171388784782D+01 -.879679499325D-08
     .468233789531D-09  .100000000000D+01  .193400000000D+04  .000000000000D+00
     .240000000000D+01  .000000000000D+00 -.977888703346D-08  .360000000000D+02
     .576006000000D+06  .400000000000D+01
23 17  2  4 18  0  0.0 -.204509589821D-03 -.102318153949D-11  .000000000000D+00
     .310000000000D+02  .273750000000D+02  .487877464912D-08  .248816179342D+01
     .135973095894D-05  .112246689387D-01  .102482736111D-04  .515380628395D+04
     .583200000000D+06 -.122934579849D-06  .169290328568D+01 -.178813934326D-06
     .944442077541D+00  .176281250000D+03 -.250428820796D+01 -.802712007606D-08
    -.130362572982D-09  .100000000000D+01  .193400000000D+04  .000000000000D+00
     .240000000000D+01  .000000000000D+00 -.200234353542D-07  .310000000000D+02
     .576006000000D+06  .400000000000D+01
24 17  2  4 18  0  0.0 -.300128012896D-04 -.568434188608D-12  .000000000000D+00
     .590000000000D+02  .969062500000D+02  .503878131404D-08  .181488995027D+01
     .504404306412D-05  .547013652977D-02  .675395131111D-05  .515370717812D+04
     .583200000000D+06 -.745058059692D-07  .271722131501D+01  .745058059692D-07
     .946685580911D+00  .241875000000D+03  .449667003258D+00 -.846999566646D-08
     .503592405216D-10  .100000000000D+01  .193400000000D+04  .000000000000D+00
     .240000000000D+01  .000000000000D+00  .232830643654D-08  .590000000000D+02
     .576006000000D+06  .400000000000D+01
25 17  2  4 18  0  0.0 -.330113340169D-03 -.670752342558D-11  .000000000000D+00
     .670000000000D+02 -.232812500000D+02  .439411160381D-08 -.173712405008D+00
    -.122375786304D-05  .609146896750D-02  .414252281189D-05  .515363600731D+04
     .583200000000D+06  .260770320892D-07 -.248710712897D+01  .113621354103D-06
     .977888204512D+00  .306187500000D+03  .751813541972D+00 -.836892002768D-08
    -.252867675811D-09  .100000000000D+01  .193400000000D+04  .000000000000D+00
     .240000000000D+01  .000000000000D+00  .558793544769D-08  .670000000000D+02
     .576006000000D+06  .400000000000D+01
26 17  2  4 18  0  0.0 -.519424676895D-03 -.682121026330D-12  .000000000000D+00
     .890000000000D+02 -.167812500000D+02  .464805075283D-08 -.610341436154D+00
    -.940635800362D-06  .165681226645D-02  .417977571487D-05  .515364867401D+04
     .583200000000D+06  .726431608200D-07 -.250054432118D+01 -.726431608200D-07
     .959726925050D+00  .299968750000D+03 -.983284880048D-01 -.835249077191D-08
    -.227152318949D-09  .100000000000D+01  .193400000000D+04  .000000000000D+00
     .240000000000D+01  .000000000000D+00  .698491930962D-08  .890000000000D+02
     .576006000000D+06  .400000000000D+01
